STARLINK-1654
1 46326U 20062B   26090.83335647  .00206844  00000+0  13797-2 0  9999
2 46326  53.0405 223.9233 0007368   5.9096 239.9406 15.74200466  5897
